EPM0307 16.42  0.15 K175J 359.67368   26.41117  226.47191   13.42631  0.1665310  0.21727963   2.7402491    FO 170526     4   1 17.9 min  0.11         Find_Orb   0000 EPM0307                     20170519
EPM0308 20.70  0.15 K175J 179.66278  289.17854  133.94759    2.18134  0.1029431  0.81804653   1.1322719    FO 170526     3   1 11.9 min  1.47         Find_Orb   0000 EPM0308                     20170519
JPA0003 16.74  0.15 K175J 359.69130   87.83119  163.23110    6.45423  0.1303133  0.26842005   2.3800865    FO 170526     4   1 17.9 min  0.12         Find_Orb   0000 JPA0003                     20170519
JPA0004 17.82  0.15 K175J 359.94517  109.53190  137.84949    5.08068  0.2689857  0.29898729   2.2149685    FO 170526     4   1 17.9 min  0.55         Find_Orb   0000 JPA0004                     20170519
JPA0005 16.94  0.15 K175J 359.99043   83.40183  167.39505    6.41404  0.1180011  0.27413986   2.3468640    FO 170526     4   1 17.9 min  0.07         Find_Orb   0000 JPA0005                     20170519
JPA0006 17.64  0.15 K175J 359.92379  119.12585  127.38255    4.59408  0.3642421  0.26767167   2.3845208    FO 170526     4   1 17.9 min  0.16         Find_Orb   0000 JPA0006                     20170519
